147P/Kushida-Muramatsu,e,2.2912,92.1162,348.1063,4.013056,0.1226002,0.21292137,359.7444,12/05.0/2023,2000,g 14.0,4.0
# From MPEC 2023-HD1
148P/Anderson-LINEAR,e,3.6584,89.1987,8.0480,3.619558,0.1431267,0.55016104,77.1745,12/05.0/2023,2000,g 16.2,4.0
# From MPEC 2023-J29
149P/Mueller,e,34.2460,143.8669,30.4302,4.123644,0.1177016,0.32434543,229.4692,12/05.0/2023,2000,g  8.0,8.0
# From MPEC 2023-W26
150P/LONEOS,e,18.5473,272.0595,246.1065,3.869769,0.1294722,0.54890912,347.2532,12/05.0/2023,2000,g 13.5,4.0
# From MPEC 2022-K19
151P/Helin,e,4.7285,143.1744,216.1188,5.763664,0.0712289,0.57347556,211.7845,12/05.0/2023,2000,g 10.0,6.0
# From MPEC 2023-W26
152P/Helin-Lawrence,e,9.8777,91.8148,164.2688,4.481649,0.1038837,0.30837537,71.6061,12/05.0/2023,2000,g 11.5,4.0
# From MPC 46101
153P/Ikeya-Zhang,e,28.3373,93.6483,34.4531,50.33814,0.0027597,0.98991933,0.0000,03/04.5609/2002,2000,g  9.0,4.0
# From MPEC 2022-K19
154P/Brewington,e,17.6339,343.0168,47.9587,4.795537,0.0938530,0.67616524,342.2196,12/05.0/2023,2000,g  2.5,12.0
# From MPEC 2022-YN2
155P/Shoemaker,e,6.4062,97.1612,14.5223,6.571122,0.0585120,0.72713059,86.6114,12/05.0/2023,2000,g 10.0,4.8
# From MPEC 2023-J29
156P/Russell-LINEAR,e,17.2708,35.3420,0.4968,3.462398,0.1529814,0.61518314,170.0352,12/05.0/2023,2000,g 15.5,2.0
# From MPEC 2023-HD1
157P/Tritton,e,12.4201,287.5272,155.1040,3.546526,0.1475704,0.55678668,66.5707,12/05.0/2023,2000,g 15.0,4.0
# From MPEC 2022-VC5
157P-B/Tritton,e,12.4256,153.9237,287.1267,3.102050,0.1803977,0.49985943,81.7045,12/05.0/2023,2000,g 15.7,4.0
# From MPEC 2023-W26
158P/Kowal-LINEAR,e,7.2865,128.5034,209.2419,5.502018,0.0763697,0.11295724,47.2496,12/05.0/2023,2000,g  9.0,4.0
# From MPEC 2021-N06
159P/LONEOS,e,23.4823,54.9587,4.6056,5.852879,0.0696065,0.38282380,140.6265,12/05.0/2023,2000,g 10.0,4.0
# From MPEC 2022-K19
160P/LINEAR,e,15.6072,333.3780,12.7830,3.777808,0.1342284,0.52569595,196.4377,12/05.0/2023,2000,g 15.5,2.0
# From MPC 75721
161P/Hartley-IRAS,e,95.8256,1.5770,47.0535,7.713606,0.0460064,0.83555233,309.8863,12/05.0/2023,2000,g  8.5,6.0
# From MPEC 2023-RF3
162P/SidingSpring,e,27.5652,30.8879,357.2089,3.092173,0.1812627,0.58316371,197.8622,12/05.0/2023,2000,g 12.0,4.0
# From MPEC 2021-S45
163P/NEAT,e,12.7178,102.0685,349.5651,3.763446,0.1349975,0.45307399,213.5265,12/05.0/2023,2000,g 14.5,4.0
# From MPEC 2021-F20
164P/Christensen,e,16.2716,88.3035,325.8735,3.653010,0.1411652,0.54121108,283.8617,12/05.0/2023,2000,g 11.0,4.0
# From MPC 75721
165P/LINEAR,e,15.8977,0.8180,125.7597,17.82337,0.0130984,0.61769942,112.5417,12/05.0/2023,2000,g 11.5,2.0
# From MPC 75722
166P/NEAT,e,15.3787,64.4354,321.6828,13.82173,0.0191805,0.38445983,150.5352,12/05.0/2023,2000,g  5.5,4.0
# From MPEC 2023-J29
167P/CINEOS,e,19.0913,295.7820,344.7569,16.25796,0.0150351,0.26868023,124.2268,12/05.0/2023,2000,g  9.5,2.0
# From MPEC 2023-J29
168P/Hergenrother,e,21.6077,355.4240,15.0676,3.586907,0.1450855,0.62161003,229.0019,12/05.0/2023,2000,g 15.5,4.0
# From MPEC 2023-J95
169P/NEAT,e,11.2959,176.0969,218.0719,2.603176,0.2346652,0.76832945,120.4457,12/05.0/2023,2000,g 16.0,2.0
# From MPEC 2023-W26
170P/Christensen,e,10.1104,142.7792,225.2603,4.210921,0.1140613,0.30597689,26.2945,12/05.0/2023,2000,g 12.0,4.0
# From MPC102102
171P/Spahr,e,21.9486,101.6970,347.0528,3.552957,0.1471700,0.50249814,262.8529,12/05.0/2023,2000,g 13.5,4.0
# From MPEC 2023-W26
172P/Yeung,e,11.2253,30.8754,209.0980,4.219455,0.1137155,0.20446264,280.4361,12/05.0/2023,2000,g 13.0,4.0
# From MPEC 2023-N01
173P/Mueller,e,16.4898,100.3631,29.1670,5.711591,0.0722052,0.26186427,51.8757,12/05.0/2023,2000,g  7.5,4.0
# From MPC 92985
174P/Echeclus,e,4.3434,173.2903,163.4144,10.75290,0.0279522,0.45626839,87.9223,12/05.0/2023,2000,g  9.4,2.0
# From MPC114608
175P/Hergenrother,e,4.9089,110.3535,75.1408,3.665081,0.1404684,0.38212515,219.3698,12/05.0/2023,2000,g 14.0,4.0
# From MPC 89015
176P/LINEAR,e,0.2314,345.6294,34.4608,3.194672,0.1726095,0.19234234,65.5499,12/05.0/2023,2000,g 15.1,2.0
# From MPEC 2020-L06
177P/Barnard,e,31.0772,272.0118,60.5447,24.51242,0.0081213,0.95485350,51.1615,12/05.0/2023,2000,g 15.0,4.0
# From MPEC 2021-F20
178P/Hug-Bell,e,11.0891,102.8068,297.9039,3.632746,0.1423480,0.48255832,175.8588,12/05.0/2023,2000,g 14.6,4.0
# From MPEC 2023-UR6
179P/Jedicke,e,19.8950,115.5154,297.0685,5.934243,0.0681799,0.30585018,37.6783,12/05.0/2023,2000,g  2.5,8.0
# From MPEC 2023-RF3
180P/NEAT,e,16.8605,84.5611,94.6554,3.868268,0.1295475,0.35351699,18.8961,12/05.0/2023,2000,g 11.0,4.0
# From MPC 89012
181P/Shoemaker-Levy,e,17.4837,35.4182,336.2799,3.877103,0.1291050,0.70043667,89.7612,12/05.0/2023,2000,g 11.5,4.0
# From MPEC 2014-J10
182P/LONEOS,e,16.2313,72.4484,54.2115,2.949644,0.1945583,0.66345229,111.2253,12/05.0/2023,2000,g 18.0,4.0
# From MPEC 2023-A50
183P/Korlevic-Juric,e,18.8541,3.9231,165.5084,4.680764,0.0973260,0.10437142,223.1790,12/05.0/2023,2000,g 12.5,2.0
# From MPEC 2020-W26
184P/Lovas,e,4.5735,173.2755,186.5500,3.798689,0.1331231,0.55062428,151.0560,12/05.0/2023,2000,g 13.5,4.0
# From MPEC 2023-W26
185P/Petriew,e,14.0146,214.1143,181.8895,3.098296,0.1807256,0.69972232,26.2239,12/05.0/2023,2000,g 15.0,4.0
# From MPEC 2022-X67
186P/Garradd,e,28.6305,326.1868,269.1808,4.852064,0.0922177,0.12424560,166.2544,12/05.0/2023,2000,g  7.5,4.0
# From MPEC 2020-SI8
187P/LINEAR,e,13.6444,109.8601,131.1762,4.561747,0.1011597,0.15334435,205.8700,12/05.0/2023,2000,g  9.0,4.0
# From MPEC 2023-J29
188P/LINEAR-Mueller,e,10.5242,358.9479,26.7154,4.368684,0.1079389,0.41694577,267.1844,12/05.0/2023,2000,g 11.5,4.0
# From MPEC 2022-QD9
189P/NEAT,e,20.0834,281.6781,16.2900,2.944088,0.1951092,0.58902115,90.3672,12/05.0/2023,2000,g 19.0,4.0
# From MPEC 2020-K19
190P/Mueller,e,2.1745,335.5657,50.4271,4.228090,0.1133673,0.52226016,316.3456,12/05.0/2023,2000,g 13.0,4.0
# From MPEC 2022-X67
191P/McNaught,e,8.8390,98.1997,284.2096,3.638966,0.1419833,0.38581809,140.4826,12/05.0/2023,2000,g 13.0,4.0
# From MPC 75724
192P/Shoemaker-Levy,e,24.5850,51.6555,313.0401,6.461138,0.0600123,0.77333258,349.7161,12/05.0/2023,2000,g 15.0,4.0
# From MPEC 2022-Y15
193P/LINEAR-NEAT,e,10.6856,335.1850,8.1317,3.577772,0.1456415,0.39331524,121.1741,12/05.0/2023,2000,g 14.0,4.0
# From MPEC 2023-W26
194P/LINEAR,e,11.8061,349.5257,128.5586,4.120504,0.1178362,0.56326252,352.7866,12/05.0/2023,2000,g 16.0,4.0
# From MPEC 2023-W26
195P/Hill,e,36.3981,243.1046,249.6971,6.496733,0.0595198,0.31496251,324.1707,12/05.0/2023,2000,g  8.5,4.0
# From MPEC 2022-YN2
196P/Tichy,e,19.3016,24.1128,12.0665,3.803886,0.1328504,0.42799229,53.3603,12/05.0/2023,2000,g 13.5,4.0
# From MPEC 2023-UR6
197P/LINEAR,e,25.5517,66.3136,188.8898,2.872172,0.2024829,0.62951731,73.3281,12/05.0/2023,2000,g 16.5,2.0
# From NK 1596
198P/ODAS,e,1.3386,358.2182,69.2517,3.594949,0.1445989,0.44468032,262.4436,12/05.0/2023,2000,g  9.0,4.0
# From MPEC 2023-W26
199P/Shoemaker,e,24.9387,92.3485,191.7727,5.879307,0.0691377,0.50497746,8.2567,12/05.0/2023,2000,g 10.0,4.0
# From MPEC 2022-C56
200P/Larsen,e,12.0961,234.8073,134.3345,4.948951,0.0895229,0.33224151,142.2266,12/05.0/2023,2000,g  9.0,4.0
# From MPC 93588
201P/LONEOS,e,5.7404,41.5409,19.7571,3.354750,0.1604035,0.63754942,147.8682,12/05.0/2023,2000,g 14.0,4.0
# From MPEC 2023-W26
202P/Scotti,e,2.1417,177.3346,274.4626,4.110086,0.1182845,0.25315984,340.5644,12/05.0/2023,2000,g 13.5,4.0
# From MPEC 2021-S45
203P/Korlevic,e,2.9736,290.2643,154.8104,4.668760,0.0977016,0.31612948,133.7853,12/05.0/2023,2000,g 14.5,2.0
# From MPEC 2023-KD6
204P/LINEAR-NEAT,e,6.5961,108.4891,356.6768,3.583026,0.1453213,0.48805404,55.6691,12/05.0/2023,2000,g 14.0,4.0
# From MPEC 2023_O39
205P/Giacobini,e,15.3055,179.6077,154.1864,3.542412,0.1478276,0.56769897,102.0772,12/05.0/2023,2000,g 13.0,4.0
# From MPC 75725
206P/Barnard-Boattini,e,33.6376,202.3523,189.5415,3.490711,0.1511239,0.55150538,151.8938,12/05.0/2023,2000,g 19.0,4.0
# From MPEC 2023-W26
207P/NEAT,e,10.2009,198.1608,272.9809,3.882851,0.1288184,0.75836981,352.5530,12/05.0/2023,2000,g 16.0,4.0
# From MPEC 2022-K19
208P/McMillan,e,4.4124,36.4031,310.5955,4.039410,0.1214024,0.37396587,328.0887,12/05.0/2023,2000,g 12.5,4.0
# From MPEC 2023-W26
209P/LINEAR,e,21.2820,62.7688,152.4833,2.958678,0.1936678,0.67396312,316.9083,12/05.0/2023,2000,g 17.0,2.0
# From MPC105242
210P/Christensen,e,10.2772,93.8244,345.8898,3.162415,0.1752571,0.83392896,234.0436,12/05.0/2023,2000,g 13.5,4.0
# From MPEC 2023-KD6
211P/Hill,e,18.9186,117.1181,4.3058,3.548563,0.1474434,0.34414760,62.8554,12/05.0/2023,2000,g 12.5,4.0
# From MPEC 2023-VM5
212P/NEAT,e,22.1459,97.9807,14.0169,3.903106,0.1278170,0.58689381,341.8390,12/05.0/2023,2000,g 17.0,2.0
# From MPEC 2022-GA9
213P/Van Ness,e,10.3815,311.3106,5.7520,3.344796,0.1611201,0.40793969,3.7414,12/05.0/2023,2000,g 10.5,4.0
# From MPC 76570
213P-B/Van Ness,e,10.3808,5.7371,311.3336,3.345037,0.1611027,0.40808205,3.5958,12/05.0/2023,2000,g 17.0,4.0
# From MPC 76570
213P-C/Van Ness,e,10.3784,5.7186,311.3346,3.344367,0.1611511,0.40791534,3.8656,12/05.0/2023,2000,g 17.5,4.0
# From MPC 92986
214P/LINEAR,e,15.1843,348.2261,190.1567,3.618298,0.1432015,0.48585804,62.2733,12/05.0/2023,2000,g 13.0,4.0
# From MPEC 2023-B57
215P/NEAT,e,10.5765,56.6734,262.4305,4.332960,0.1092766,0.16560765,161.4555,12/05.0/2023,2000,g 11.0,4.0
# From MPEC 2023-UR6
216P/LINEAR,e,9.0633,359.7981,151.7292,3.857621,0.1300842,0.44860637,355.7253,12/05.0/2023,2000,g 13.0,4.0
# From MPEC 2023-J29
217P/LINEAR,e,12.8628,125.3923,246.9959,3.947076,0.1256871,0.68928702,292.5237,12/05.0/2023,2000,g 12.0,4.0
# From MPEC 2022-K19
218P/LINEAR,e,2.7298,175.8914,59.6373,3.083820,0.1819996,0.62546825,210.3628,12/05.0/2023,2000,g 16.0,4.0
# From MPEC 2023-W26
219P/LINEAR,e,11.5400,230.9541,107.6204,3.644921,0.1416354,0.35393713,349.9707,12/05.0/2023,2000,g 11.0,4.0
# From MPEC 2023-W26
220P/McNaught,e,8.1250,150.1058,180.6157,3.118620,0.1789619,0.50092591,195.0225,12/05.0/2023,2000,g 15.0,4.0
# From MPEC 2022-UY9
